FLOCK 3P-46             
1 42031U 17008CM  17189.89426073  .00001292  00000-0  58530-4 0  9990
2 42031  97.4947 251.2255 0009632 130.0378 230.1705 15.22668423 21848
FLOCK 3P-47             
1 42032U 17008CN  17189.89483028  .00001863  00000-0  83111-4 0  9991
2 42032  97.4947 251.2250 0009580 130.4195 229.7878 15.22624744 21660
FLOCK 3P-44             
1 42033U 17008CP  17189.88934637  .00002716  00000-0  11964-3 0  9992
2 42033  97.4948 251.2346 0009463 132.0044 228.2000 15.22661653 20412
FLOCK 3P-64             
1 42034U 17008CQ  17189.88890761  .00001420  00000-0  64019-4 0  9993
2 42034  97.4945 251.2283 0009387 131.7894 228.4145 15.22660136 21838
FLOCK 3P-63             
1 42035U 17008CR  17189.88806774  .00000980  00000-0  45117-4 0  9993
2 42035  97.4944 251.2272 0009426 132.1296 228.0743 15.22666377 19808
FLOCK 3P-62             
1 42036U 17008CS  17189.88141003  .00001280  00000-0  57756-4 0  9997
2 42036  97.4945 251.2387 0009361 133.2524 226.9495 15.22806066 21008
FLOCK 3P-38             
1 42037U 17008CT  17189.95141950  .00000976  00000-0  44958-4 0  9998
2 42037  97.4944 251.2960 0009101 132.5420 227.6586 15.22665202 21794
FLOCK 3P-39             
1 42038U 17008CU  17189.94990886  .00001747  00000-0  77986-4 0  9992
2 42038  97.4941 251.2930 0009282 132.2242 227.9783 15.22695688 21746
FLOCK 3P-15             
1 42039U 17008CV  17189.88719886  .00000929  00000-0  42978-4 0  9999
2 42039  97.4944 251.2288 0009232 132.3872 227.8147 15.22644886 21018
FLOCK 3P-13             
1 42040U 17008CW  17189.94831134  .00001703  00000-0  76107-4 0  9991
2 42040  97.4946 251.3026 0009083 132.5953 227.6051 15.22696230 21011
FLOCK 3P-55             
1 42041U 17008CX  17189.93303063  .00001085  00000-0  49358-4 0  9997
2 42041  97.4945 251.3204 0008780 136.0673 224.1263 15.22861145 21858
FLOCK 3P-56             
1 42042U 17008CY  17189.93407922  .00002061  00000-0  90891-4 0  9990
2 42042  97.4942 251.3125 0008822 135.5097 224.6849 15.22910552 21648
FLOCK 3P-81             
1 42043U 17008CZ  17189.90778298  .00001745  00000-0  78012-4 0  9994
2 42043  97.4970 251.2565 0010033 118.3339 241.8910 15.22642834 21029
FLOCK 3P-87             
1 42044U 17008DA  17189.91606653  .00002543  00000-0  11236-3 0  9992
2 42044  97.4964 251.2395 0010285 115.8616 244.3682 15.22614625 21170
FLOCK 3P-29             
1 42045U 17008DB  17189.85137510  .00002168  00000-0  96288-4 0  9991
2 42045  97.4949 251.1347 0009933 113.6148 246.6132 15.22605020 21011
FLOCK 3P-82             
1 42046U 17008DC  17189.85276556  .00002917  00000-0  12854-3 0  9994
2 42046  97.4967 251.1743 0010397 116.5033 243.7270 15.22575837 21061
FLOCK 3P-78             
1 42047U 17008DD  17189.91514274  .00001698  00000-0  76025-4 0  9990
2 42047  97.4968 251.2454 0010203 115.7541 244.4749 15.22620036 21009
FLOCK 3P-74             
1 42048U 17008DE  17189.92100173  .00002846  00000-0  12561-3 0  9991
2 42048  97.4970 251.2424 0010504 116.4857 243.7458 15.22549624 21004
FLOCK 3P-31             
1 42049U 17008DF  17189.92125326  .00003080  00000-0  13569-3 0  9999
2 42049  97.4949 251.1967 0010106 114.2372 245.9921 15.22540717 20460
FLOCK 3P-83             
1 42050U 17008DG  17189.92154021  .00002672  00000-0  11822-3 0  9991
2 42050  97.4967 251.2353 0010411 116.9761 243.2540 15.22521082 21735
FLOCK 3P-72             
1 42051U 17008DH  17189.70983501  .00001373  00000-0  62033-4 0  9999
2 42051  97.4974 251.0658 0009863 115.7111 244.5145 15.22650514 19291
LEMUR-2-REDFERN-GOES    
1 42059U 98067LA  17189.68218865  .00009385  00000-0  12689-3 0  9994
2 42059  51.6397 288.6665 0008356  16.6729 343.4536 15.58478342 19361
TECHEDSAT 5             
1 42066U 98067LB  17189.66511709  .00229403  00000-0  93279-3 0  9992
2 42066  51.6294 279.4551 0012935 345.7841  14.2796 15.84899246 19210
LEMUR-2-TRUTNA          
1 42067U 98067LC  17189.87054247  .00020085  00000-0  24357-3 0  9991
2 42067  51.6395 286.9234 0008042  13.3119 346.8085 15.60584144 19233
LEMUR-2-AUSTINTACIOUS   
1 42068U 98067LD  17189.80235449  .00013468  00000-0  17626-3 0  9998
2 42068  51.6402 287.9685 0007852  15.4773 344.6458 15.58917400 19312
LEMUR-2-TRUTNAHD        
1 42069U 98067LE  17189.48565076  .00012896  00000-0  17062-3 0  9993
2 42069  51.6409 289.6088 0007743  13.3272 346.7924 15.58671560 19311
SOMP2                   
1 42700U 98067LH  17189.58942388  .00008154  00000-0  12103-3 0  9994
2 42700  51.6406 291.0430 0006943  41.5516 318.6002 15.56160546  8276
HAVELSAT                
1 42701U 98067LJ  17189.52720261  .00001724  00000-0  31221-4 0  9992
2 42701  51.6426 291.3782 0006827  42.7408 317.4113 15.56042518  8252
COLUMBIA                
1 42702U 98067LK  17189.82981600  .00016877  00000-0  23397-3 0  9991
2 42702  51.6402 289.6482 0007275  32.0944 328.0489 15.57163997  8237
SGSAT                   
1 42703U 98067LL  17189.90251788  .00013559  00000-0  19247-3 0  9991
2 42703  51.6405 289.3848 0003520 353.0343   7.0600 15.56741955  8236
CXBN-2                  
1 42704U 98067LM  17189.66011495  .00007904  00000-0  11854-3 0  9997
2 42704  51.6407 290.7660 0002734 358.3531   1.7451 15.55934345  8208
ICECUBE                 
1 42705U 98067LN  17189.46622016  .00011005  00000-0  16108-3 0  9997
2 42705  51.6412 291.7229 0002702   1.7350 358.3650 15.56135166  8230
PHOENIX                 
1 42706U 98067LP  17189.91178987  .00008704  00000-0  12892-3 0  9999
2 42706  51.6410 289.4489 0002122  20.6463 339.4614 15.56128296  8238
X-CUBESAT               
1 42707U 98067LQ  17189.52713768  .00008045  00000-0  11984-3 0  9998
2 42707  51.6407 291.3780 0002130  18.6758 341.4312 15.56091528  8161
QBEE50-LTU-OC           
1 42708U 98067LR  17189.65669309  .00008205  00000-0  12227-3 0  9993
2 42708  51.6408 290.7436 0002256  18.4590 341.6483 15.56051215  8143
ALTAIR PATHFINDER       
1 42711U 98067LS  17189.86605143  .00005938  00000-0  92571-4 0  9997
2 42711  51.6406 289.8895 0004812 346.2618  13.8241 15.55396492  7884
SHARC                   
1 42712U 98067LT  17189.86295157  .00006156  00000-0  95500-4 0  9996
2 42712  51.6411 289.8710 0002774 354.4953   5.6007 15.55459820  8127
ZA-AEROSAT              
1 42713U 98067LU  17189.53570851  .00006845  00000-0  10425-3 0  9995
2 42713  51.6408 291.4349 0002724 344.3482  15.7425 15.55763349  7838
LINK                    
1 42714U 98067LV  17189.92039195  .00008714  00000-0  13026-3 0  9997
2 42714  51.6405 289.5035 0003153 348.3641  11.7277 15.55871897  8003
CSUNSAT 1               
1 42715U 98067LW  17189.66846843  .00007221  00000-0  11000-3 0  9997
2 42715  51.6405 290.8201 0004975 336.0190  24.0569 15.55656254  7851
UPSAT                   
1 42716U 98067LX  17189.52847064  .00009082  00000-0  13413-3 0  9996
2 42716  51.6407 291.3864 0005162  42.7967 317.3426 15.56140724  7960
SPACECUBE               
1 42717U 98067LY  17189.66085623  .00007864  00000-0  11796-3 0  9995
2 42717  51.6407 290.7709 0005195  43.8261 316.3142 15.55936804  7221
HOOPOE                  
1 42718U 98067LZ  17189.65931812  .00008745  00000-0  12994-3 0  9995
2 42718  51.6408 290.7609 0005194  42.2747 317.8644 15.56029942  7223
CHALLENGER              
1 42721U 98067MA  17189.53946862  .00010959  00000-0  16108-3 0  9998
2 42721  51.6405 291.4582 0008566  23.3084 336.8294 15.56001457  6909
NJUST-1                 
1 42722U 98067MB  17189.54714110  .00006900  00000-0  10601-3 0  9992
2 42722  51.6407 291.5097 0008171  27.1513 332.9904 15.55491296  6903
UNSW-ECO                
1 42723U 98067MC  17189.67287464  .00008884  00000-0  13339-3 0  9998
2 42723  51.6408 290.8500 0008263  25.2950 334.8444 15.55704563  6906
DUTHSAT                 
1 42724U 98067MD  17189.54263764  .00010589  00000-0  15665-3 0  9991
2 42724  51.6407 291.4798 0007468  25.8953 334.2411 15.55875544  6802
LILACSAT-1              
1 42725U 98067ME  17189.87025697  .00007644  00000-0  11689-3 0  9999
2 42725  51.6407 289.9183 0007265  30.1333 330.0075 15.55443398  6852
NSIGHT-1                
1 42726U 98067MF  17189.68148992  .00004020  00000-0  65553-4 0  9998
2 42726  51.6411 290.9078 0007105  32.7461 327.3969 15.55146149  6839
SNUSAT-1                
1 42727U 98067MG  17189.54882385  .00006666  00000-0  10270-3 0  9998
2 42727  51.6404 291.5190 0008601 351.9188   8.1664 15.55476298  6778
QBITO                   
1 42728U 98067MH  17189.86630501  .00008733  00000-0  13150-3 0  9992
2 42728  51.6410 289.8931 0004409  34.9624 325.1656 15.55666434  6668
AALTO-2                 
1 42729U 98067MJ  17189.80192883  .00008603  00000-0  12965-3 0  9992
2 42729  51.6409 290.2131 0004456  34.4055 325.7224 15.55667046  6667
SUSAT                   
1 42730U 98067MK  17189.67437182  .00008757  00000-0  13197-3 0  9991
2 42730  51.6408 290.8605 0004487  33.0127 327.1144 15.55639539  6639
I-INSPIRE II            
1 42731U 98067ML  17189.86486168  .00008311  00000-0  12505-3 0  9999
2 42731  51.6404 289.8798 0008135 340.7595  19.3088 15.55749346  6712
POLYITAN-2-SAU          
1 42732U 98067MM  17189.54412427  .00008050  00000-0  12160-3 0  9999
2 42732  51.6402 291.4874 0008063 339.1989  20.8673 15.55691529  6664
SNUSAT-1B               
1 42733U 98067MN  17189.67469383  .00008012  00000-0  12150-3 0  9994
2 42733  51.6404 290.8598 0007903 341.3481  18.7219 15.55593252  6685
EXALTA-1                
1 42734U 98067MP  17189.86497721  .00009202  00000-0  13762-3 0  9995
2 42734  51.6405 289.8813 0009907   3.0964 357.0087 15.55748254  6663
AOXIANG-1               
1 42735U 98067MQ  17189.48238409  .00006997  00000-0  10722-3 0  9991
2 42735  51.6408 291.8270 0008904  23.3629 336.7765 15.55532524  8026
BEEAGLESAT              
1 42736U 98067MR  17189.86821644  .00007901  00000-0  12005-3 0  9995
2 42736  51.6408 289.9041 0008801  23.6477 336.4917 15.55555162  6770
